ONEWEB-0435             
1 51632U 22012L   25093.60548701  .00000708  00000+0  19917-2 0  9997
2 51632  87.8814 123.9208 0002123  82.5388 277.5981 13.10374076151741
ONEWEB-0436             
1 51633U 22012M   25093.69366786  .00000019  00000+0  15147-4 0  9996
2 51633  87.9000  93.3796 0001894  80.6488 279.4858 13.17651852155808
ONEWEB-0438             
1 51634U 22012N   25093.58887587  .00000027  00000+0  40246-4 0  9999
2 51634  87.8818 123.9249 0002100  98.9396 261.1969 13.10376473151778
ONEWEB-0439             
1 51635U 22012P   25093.59219889  .00000175  00000+0  46391-3 0  9995
2 51635  87.8819 123.9114 0002038  93.1050 267.0311 13.10376204151751
ONEWEB-0442             
1 51636U 22012Q   25093.68607235 -.00000030  00000+0 -11101-3 0  9995
2 51636  87.9004  93.4257 0002047 108.8064 251.3289 13.17651176155796
ONEWEB-0443             
1 51637U 22012R   25093.70547721  .00000027  00000+0  36253-4 0  9992
2 51637  87.9006  93.4350 0002280  91.7340 268.4053 13.17648265155848
ONEWEB-0444             
1 51638U 22012S   25093.58222358 -.00000307  00000+0 -91526-3 0  9991
2 51638  87.8814 123.9204 0002101  90.9159 269.2209 13.10376857151760
ONEWEB-0445             
1 51639U 22012T   25093.60382880  .00000694  00000+0  19509-2 0  9999
2 51639  87.8805 123.8744 0001872  99.1634 260.9705 13.10374145151770
